[{"OBJECT_NAME":"BEIDOU-2 IGSO-1 (C06)","OBJECT_ID":"2010-036A","EPOCH":"2026-03-27T15:19:55.702560","MEAN_MOTION":1.00295665,"ECCENTRICITY":0.00574619,"INCLINATION":54.2909,"RA_OF_ASC_NODE":163.6978,"ARG_OF_PERICENTER":222.7538,"MEAN_ANOMALY":133.1758,"EPHEMERIS_TYPE":0,"CLASSIFICATION_TYPE":"U","NORAD_CAT_ID":36828,"ELEMENT_SET_NO":999,"REV_AT_EPOCH":5727,"BSTAR":0,"MEAN_MOTION_DOT":-1.5e-6,"MEAN_MOTION_DDOT":0},{"OBJECT_NAME":"BEIDOU-2 G4 (C04)","OBJECT_ID":"2010-057A","EPOCH":"2026-04-05T06:08:25.441728","MEAN_MOTION":1.00271647,"ECCENTRICITY":0.00072139,"INCLINATION":3.4665,"RA_OF_ASC_NODE":69.3575,"ARG_OF_PERICENTER":215.5538,"MEAN_ANOMALY":160.7597,"EPHEMERIS_TYPE":0,"CLASSIFICATION_TYPE":"U","NORAD_CAT_ID":37210,"ELEMENT_SET_NO":999,"REV_AT_EPOCH":5656,"BSTAR":0,"MEAN_MOTION_DOT":-1.1e-6,"MEAN_MOTION_DDOT":0},{"OBJECT_NAME":"BEIDOU-2 IGSO-2 (C07)","OBJECT_ID":"2010-068A","EPOCH":"2026-03-27T10:45:38.648736","MEAN_MOTION":1.00251076,"ECCENTRICITY":0.00480708,"INCLINATION":47.6922,"RA_OF_ASC_NODE":272.8379,"ARG_OF_PERICENTER":212.2935,"MEAN_ANOMALY":326.6285,"EPHEMERIS_TYPE":0,"CLASSIFICATION_TYPE":"U","NORAD_CAT_ID":37256,"ELEMENT_SET_NO":999,"REV_AT_EPOCH":5597,"BSTAR":0,"MEAN_MOTION_DOT":-1.75e-6,"MEAN_MOTION_DDOT":0},{"OBJECT_NAME":"BEIDOU-2 IGSO-3 (C08)","OBJECT_ID":"2011-013A","EPOCH":"2026-04-05T06:25:14.591136","MEAN_MOTION":1.00285678,"ECCENTRICITY":0.00342924,"INCLINATION":62.3143,"RA_OF_ASC_NODE":40.84,"ARG_OF_PERICENTER":189.3814,"MEAN_ANOMALY":167.2909,"EPHEMERIS_TYPE":0,"CLASSIFICATION_TYPE":"U","NORAD_CAT_ID":37384,"ELEMENT_SET_NO":999,"REV_AT_EPOCH":5492,"BSTAR":0,"MEAN_MOTION_DOT":-1.86e-6,"MEAN_MOTION_DDOT":0},{"OBJECT_NAME":"BEIDOU-2 IGSO-4 (C09)","OBJECT_ID":"2011-038A","EPOCH":"2026-03-28T15:54:07.127136","MEAN_MOTION":1.00260433,"ECCENTRICITY":0.0156581,"INCLINATION":54.5871,"RA_OF_ASC_NODE":166.404,"ARG_OF_PERICENTER":231.4212,"MEAN_ANOMALY":120.2889,"EPHEMERIS_TYPE":0,"CLASSIFICATION_TYPE":"U","NORAD_CAT_ID":37763,"ELEMENT_SET_NO":999,"REV_AT_EPOCH":5383,"BSTAR":0,"MEAN_MOTION_DOT":-1.09e-6,"MEAN_MOTION_DDOT":0},{"OBJECT_NAME":"BEIDOU-2 IGSO-5 (C10)","OBJECT_ID":"2011-073A","EPOCH":"2026-04-03T23:17:21.772896","MEAN_MOTION":1.00265759,"ECCENTRICITY":0.01095393,"INCLINATION":47.8149,"RA_OF_ASC_NODE":272.4589,"ARG_OF_PERICENTER":220.8427,"MEAN_ANOMALY":142.8662,"EPHEMERIS_TYPE":0,"CLASSIFICATION_TYPE":"U","NORAD_CAT_ID":37948,"ELEMENT_SET_NO":999,"REV_AT_EPOCH":5239,"BSTAR":0,"MEAN_MOTION_DOT":-1.74e-6,"MEAN_MOTION_DDOT":0},{"OBJECT_NAME":"BEIDOU-2 G5 (C05)","OBJECT_ID":"2012-008A","EPOCH":"2026-04-05T04:28:03.586368","MEAN_MOTION":1.00276225,"ECCENTRICITY":0.00131804,"INCLINATION":3.3924,"RA_OF_ASC_NODE":70.1158,"ARG_OF_PERICENTER":261.3911,"MEAN_ANOMALY":347.7894,"EPHEMERIS_TYPE":0,"CLASSIFICATION_TYPE":"U","NORAD_CAT_ID":38091,"ELEMENT_SET_NO":999,"REV_AT_EPOCH":5163,"BSTAR":0,"MEAN_MOTION_DOT":5.8e-7,"MEAN_MOTION_DDOT":0},{"OBJECT_NAME":"BEIDOU-2 M3 (C11)","OBJECT_ID":"2012-018A","EPOCH":"2026-04-04T02:07:31.417248","MEAN_MOTION":1.86229902,"ECCENTRICITY":0.00201848,"INCLINATION":55.8207,"RA_OF_ASC_NODE":307.3724,"ARG_OF_PERICENTER":279.408,"MEAN_ANOMALY":80.3921,"EPHEMERIS_TYPE":0,"CLASSIFICATION_TYPE":"U","NORAD_CAT_ID":38250,"ELEMENT_SET_NO":999,"REV_AT_EPOCH":9456,"BSTAR":0,"MEAN_MOTION_DOT":-6.4e-7,"MEAN_MOTION_DDOT":0},{"OBJECT_NAME":"BEIDOU-2 M4 (C12)","OBJECT_ID":"2012-018B","EPOCH":"2026-04-04T00:29:52.807776","MEAN_MOTION":1.86229532,"ECCENTRICITY":0.00114801,"INCLINATION":55.7212,"RA_OF_ASC_NODE":306.5945,"ARG_OF_PERICENTER":286.2876,"MEAN_ANOMALY":73.6134,"EPHEMERIS_TYPE":0,"CLASSIFICATION_TYPE":"U","NORAD_CAT_ID":38251,"ELEMENT_SET_NO":999,"REV_AT_EPOCH":9456,"BSTAR":0,"MEAN_MOTION_DOT":-6.4e-7,"MEAN_MOTION_DDOT":0},{"OBJECT_NAME":"BEIDOU-2 M6 (C14)","OBJECT_ID":"2012-050B","EPOCH":"2026-04-04T19:18:40.582368","MEAN_MOTION":1.86231043,"ECCENTRICITY":0.00144563,"INCLINATION":56.4825,"RA_OF_ASC_NODE":65.3192,"ARG_OF_PERICENTER":345.2296,"MEAN_ANOMALY":14.7002,"EPHEMERIS_TYPE":0,"CLASSIFICATION_TYPE":"U","NORAD_CAT_ID":38775,"ELEMENT_SET_NO":999,"REV_AT_EPOCH":9194,"BSTAR":0,"MEAN_MOTION_DOT":-4.0e-7,"MEAN_MOTION_DDOT":0},{"OBJECT_NAME":"BEIDOU-2 G6 (C02)","OBJECT_ID":"2012-059A","EPOCH":"2026-04-05T01:09:52.593696","MEAN_MOTION":1.00271726,"ECCENTRICITY":0.00109275,"INCLINATION":4.237,"RA_OF_ASC_NODE":74.2924,"ARG_OF_PERICENTER":311.7479,"MEAN_ANOMALY":268.8374,"EPHEMERIS_TYPE":0,"CLASSIFICATION_TYPE":"U","NORAD_CAT_ID":38953,"ELEMENT_SET_NO":999,"REV_AT_EPOCH":4917,"BSTAR":0,"MEAN_MOTION_DOT":-1.73e-6,"MEAN_MOTION_DDOT":0},{"OBJECT_NAME":"BEIDOU-3S IGSO-1S (C31)","OBJECT_ID":"2015-019A","EPOCH":"2026-03-23T06:58:51.098016","MEAN_MOTION":1.00268843,"ECCENTRICITY":0.0036261,"INCLINATION":49.3559,"RA_OF_ASC_NODE":296.4949,"ARG_OF_PERICENTER":190.1236,"MEAN_ANOMALY":255.118,"EPHEMERIS_TYPE":0,"CLASSIFICATION_TYPE":"U","NORAD_CAT_ID":40549,"ELEMENT_SET_NO":999,"REV_AT_EPOCH":4021,"BSTAR":0,"MEAN_MOTION_DOT":-1.63e-6,"MEAN_MOTION_DDOT":0},{"OBJECT_NAME":"BEIDOU-3S M2S (C58)","OBJECT_ID":"2015-037A","EPOCH":"2026-04-03T16:29:48.088896","MEAN_MOTION":1.86232009,"ECCENTRICITY":0.00078661,"INCLINATION":54.9362,"RA_OF_ASC_NODE":304.6107,"ARG_OF_PERICENTER":276.2364,"MEAN_ANOMALY":83.6984,"EPHEMERIS_TYPE":0,"CLASSIFICATION_TYPE":"U","NORAD_CAT_ID":40748,"ELEMENT_SET_NO":999,"REV_AT_EPOCH":7273,"BSTAR":0,"MEAN_MOTION_DOT":-6.4e-7,"MEAN_MOTION_DDOT":0},{"OBJECT_NAME":"BEIDOU-3S M1S (C57)","OBJECT_ID":"2015-037B","EPOCH":"2026-04-03T21:41:35.825568","MEAN_MOTION":1.86254958,"ECCENTRICITY":0.0004693,"INCLINATION":54.9325,"RA_OF_ASC_NODE":304.5916,"ARG_OF_PERICENTER":43.1589,"MEAN_ANOMALY":316.9018,"EPHEMERIS_TYPE":0,"CLASSIFICATION_TYPE":"U","NORAD_CAT_ID":40749,"ELEMENT_SET_NO":999,"REV_AT_EPOCH":7274,"BSTAR":0,"MEAN_MOTION_DOT":-6.3e-7,"MEAN_MOTION_DDOT":0},{"OBJECT_NAME":"BEIDOU-3S IGSO-2S (C56)","OBJECT_ID":"2015-053A","EPOCH":"2026-04-04T21:48:29.137248","MEAN_MOTION":1.0027737,"ECCENTRICITY":0.00623728,"INCLINATION":49.3383,"RA_OF_ASC_NODE":259.6493,"ARG_OF_PERICENTER":189.8511,"MEAN_ANOMALY":167.6444,"EPHEMERIS_TYPE":0,"CLASSIFICATION_TYPE":"U","NORAD_CAT_ID":40938,"ELEMENT_SET_NO":999,"REV_AT_EPOCH":3861,"BSTAR":0,"MEAN_MOTION_DOT":-1.41e-6,"MEAN_MOTION_DDOT":0},{"OBJECT_NAME":"BEIDOU-2 IGSO-6 (C13)","OBJECT_ID":"2016-021A","EPOCH":"2026-04-02T19:31:21.614304","MEAN_MOTION":1.00273243,"ECCENTRICITY":0.00588423,"INCLINATION":60.1276,"RA_OF_ASC_NODE":38.7875,"ARG_OF_PERICENTER":233.3821,"MEAN_ANOMALY":307.4549,"EPHEMERIS_TYPE":0,"CLASSIFICATION_TYPE":"U","NORAD_CAT_ID":41434,"ELEMENT_SET_NO":999,"REV_AT_EPOCH":3672,"BSTAR":0,"MEAN_MOTION_DOT":-1.7e-6,"MEAN_MOTION_DDOT":0},{"OBJECT_NAME":"BEIDOU-2 G7 (C03)","OBJECT_ID":"2016-037A","EPOCH":"2026-04-05T06:25:29.566848","MEAN_MOTION":1.00277528,"ECCENTRICITY":0.00075075,"INCLINATION":1.5403,"RA_OF_ASC_NODE":68.5764,"ARG_OF_PERICENTER":349.6401,"MEAN_ANOMALY":342.1932,"EPHEMERIS_TYPE":0,"CLASSIFICATION_TYPE":"U","NORAD_CAT_ID":41586,"ELEMENT_SET_NO":999,"REV_AT_EPOCH":615,"BSTAR":0,"MEAN_MOTION_DOT":-3.52e-6,"MEAN_MOTION_DDOT":0}]
